#cP2023  4 26  0  0  0.00000000      96 ORBIT IGS20 HLM  IGS
## 2259 259200.00000000   900.00000000 60060 0.0000000000000
+   32   G01G02G03G04G05G06G07G08G09G10G11G12G13G14G15G16G17
+        G18G19G20G21G22G23G24G25G26G27G28G29G30G31G32  0  0
+          0  0  0  0  0  0  0  0  0  0  0  0  0  0  0  0  0
+          0  0  0  0  0  0  0  0  0  0  0  0  0  0  0  0  0
+          0  0  0  0  0  0  0  0  0  0  0  0  0  0  0  0  0
++         2  2  2  2  2  2  2  2  2  2  3  2  2  2  2  2  2
++         2  2  2  2  3  2  2  2  2  2  2  2  2  2  2  0  0
++         0  0  0  0  0  0  0  0  0  0  0  0  0  0  0  0  0
++         0  0  0  0  0  0  0  0  0  0  0  0  0  0  0  0  0
++         0  0  0  0  0  0  0  0  0  0  0  0  0  0  0  0  0
%c G  cc GPS ccc cccc cccc cccc cccc ccccc ccccc ccccc ccccc
%c cc cc ccc ccc cccc cccc cccc cccc ccccc ccccc ccccc ccccc
%f  1.2500000  1.025000000  0.00000000000  0.000000000000000
%f  0.0000000  0.000000000  0.00000000000  0.000000000000000
%i    0    0    0    0      0      0      0      0         0
%i    0    0    0    0      0      0      0      0         0
/* RAPID ORBIT COMBINATION FROM WEIGHTED AVERAGE OF:        
/* cod emr esa gfz grg jpl ngs sio usn whu                  
/* REFERENCED TO IGS TIME (IGST) AND TO WEIGHTED MEAN POLE: 
/* PCV:IGS20_2233 OL/AL:FES2014b NONE     Y  ORB:CMB CLK:CMB
*  2023  4 26 18  0  0.00000000
PG01  15208.103755   1281.456877  21458.207071    189.999192  3  3  3  88       
PG02  -1658.131718  21792.435841 -14815.596941   -602.187454  5  8  6  97       
PG03  20515.739951  -9325.705359  13831.078868   -319.564405  5  5  5  90       
PG04  24946.183472   -792.555174  -9234.292487     26.478609  8  7  2  62       
PG05 -14245.411204  -6228.152733 -21718.189721   -124.912315  6  6  5 120       
PG06  -4555.791472 -25511.185519   5635.489579    587.791655  4  8  5  96       
PG07   9681.706816 -14573.149919 -19386.956216    192.394997  6  7  3 103       
PG08  25796.477669   6533.780086  -3036.077418   -119.618856  4  6  4  77       
PG09  18178.501174  -9144.599943 -17162.165332   -171.740036  5  6  6  84       
PG10  -8380.117127  22038.888089  12091.449666    -34.480448  3  4  3  73       
PG11 -12486.123594 -21785.634728  -8705.179411   -175.831772  7 10  7  84       
PG12 -20717.557226   5730.942331  15261.564971   -368.733517  5  8  3 103       
PG13 -21364.761448 -13578.896552  -8549.379579    511.449141  6  8  8 112       
PG14  11395.645318 -22028.920399   9309.044122     37.349360  5 11  4  97       
PG15 -26313.084596  -3731.306679  -3073.489193     34.157805  4  5  8 106       
PG16  11414.405055  10174.834196 -22033.069502   -505.887828  6  7  6  82       
PG17   3801.745484 -14630.884636  22268.535772    712.366724  4  8  3  89       
PG18  -7262.092722  17858.257962 -18203.020208   -241.158615  7  8  5  99       
PG19  -6796.125946 -16200.151423  19781.519262    308.912090  4  8  5  95       
PG20  -7941.992509 -15056.399750 -20399.838203    436.849228  7  5  4 105       
PG21  17969.840442   9805.743963  17921.786721    154.081544  2  5  2  93       
PG22  10009.341020  16468.176640  18796.037584    471.085460 11  4  9  88       
PG23 -16579.352387  20640.354114    469.707397     19.620850  6  8  5  57       
PG24 -17610.112565  -5069.193591  19008.357658   -166.663012  7  7  2 104       
PG25 -19857.411337  15947.159564   6718.985988    438.517794  3  8  4  40       
PG26   1762.400141  19514.768240 -17894.019531    241.436828  7  8  5  73       
PG27  19579.405581  12950.534600 -13066.270385     50.286497  5  5  5  65       
PG28   4131.046737  25188.373618   7329.465180     70.823145  5  8  6 100       
PG29 -21330.634461   4749.540963 -15212.744769   -597.131398  4  6  1  96       
PG30   1707.918832 -23354.094890 -12168.835388   -520.403077  5  8  4  92       
PG31   9113.511277  24643.592810  -1764.716127   -214.842686  2  8  6  74       
PG32    187.932235  15541.218172  21732.308693   -461.667363        2 105       
*  2023  4 26 18 15  0.00000000
PG01  16003.974697   3614.375319  20640.843056    189.996357  2  3  1  81       
PG02  -2607.118128  20162.943637 -16765.178848   -602.184317  4  8  5  98       
PG03  19547.303280  -7888.181549  15956.664759   -319.555620  5  5  4  74       
PG04  25788.088510   -394.665692  -6576.838323     26.487113  8  7  2  48       
PG05 -12789.387012  -8210.698193 -21955.439510   -124.913921  6  5  5 113       
PG06  -4120.521950 -24823.667734   8402.477330    587.792230  4  7  5  92       
PG07  10640.435655 -12388.377846 -20399.264773    192.386966  6  7  3 109       
PG08  25278.105675   6690.455823  -5806.023771   -119.620205  5  6  4  85       
PG09  19980.124883  -8714.382938 -15275.262588   -171.732766  4  6  6  91       
PG10  -9303.054929  22863.489200   9559.606525    -34.481317  4  4  4  60       
PG11 -12528.918342 -22656.003469  -6010.224087   -175.843614  6 11  7  81       
PG12 -19537.581558   4225.527577  17163.684157   -368.737647  5  8  3  84       
PG13 -20262.825486 -13436.158864 -11107.290288    511.454204  6  8  8 110       
PG14  12208.865167 -22538.445290   6671.111821     37.360249  5 10  3 110       
PG15 -25850.660500  -4026.242005  -5794.952863     34.160721  4  5  8 105       
PG16   9686.196601  11912.267443 -21948.825530   -505.885194  6  7  6  84       
PG17   6180.340875 -14081.679024  22094.351555    712.368431  4  8  2  91       
PG18  -8101.585755  15856.244468 -19658.147880   -241.173274  6  7  4  96       
PG19  -4502.609191 -15643.506553  20818.848171    308.916688  3  8  5  90       
PG20  -6724.147431 -16984.266791 -19313.717867    436.847509  7  5  5 102       
PG21  18668.206458  11492.821496  16128.719882    154.081869  3  6  2  84       
PG22   7912.458039  16048.028475  20129.474133    471.091452 12  6  8  14       
PG23 -16693.603144  20410.660808  -2417.151281     19.623387  6  8  5  87       
PG24 -18409.311368  -7078.664119  17621.062308   -166.675888  7  7  3 106       
PG25 -19474.961984  15015.792404   9368.211591    438.520218  3  8  4  51       
PG26    458.360036  20980.213304 -16196.199529    241.436562  7  8  5  52       
PG27  18009.664096  12850.508306 -15244.134016     50.279055  5  5  5  80       
PG28   3533.623829  24363.537966   9951.417201     70.827750  5  8  6  87       
PG29 -22849.133540   4222.637402 -13001.297476   -597.132845  3  7  2  99       
PG30   2501.005440 -21994.665272 -14371.801780   -520.401349  5  8  5  75       
PG31   8830.902101  24764.340380   1104.588430   -214.843562  2  8  6  57       
PG32  -2239.862903  15171.845072  21861.936305   -461.676083        2  90       
*  2023  4 26 18 30  0.00000000
PG01  16883.168768   5789.149603  19460.471884    189.993506  2  3     87       
PG02  -3744.147061  18401.635437 -18419.345313   -602.180730  4  7  5  99       
PG03  18525.840271  -6216.001848  17803.819461   -319.546849  5  5  4  90       
PG04  26345.941637    -83.710990  -3806.897226     26.495571  8  7  2  56       
PG05 -11437.459457 -10273.902004 -21820.907030   -124.914794  6  4  5 106       
PG06  -3524.605012 -23881.450191  11024.350573    587.792796  5  7  6  84       
PG07  11741.984787 -10168.193530 -21043.033578    192.379000  7  7  1  93       
PG08  24464.598357   6851.033232  -8478.530079   -119.622007  5  7  4  91       
PG09  21574.866402  -8395.689181 -13127.168221   -171.725493  4  5  6  70       
PG10 -10008.319271  23495.457189   6861.578001    -34.482620  4  4  5  76       
PG11 -12505.263932 -23232.946804  -3212.030622   -175.855448  6 11  7  82       
PG12 -18308.812525   2505.412071  18763.225309   -368.741776  6  8  3  94       
PG13 -18886.304433 -13286.966023 -13477.654675    511.458982  6  8  7 112       
PG14  12808.751514 -22846.177956   3917.408949     37.371148  5 10  3 103       
PG15 -25106.300923  -4350.270236  -8419.320449     34.163936  5  5  8  93       
PG16   8070.028551  13720.635512 -21496.353819   -505.882640  6  8  6  94       
PG17   8546.283638 -13671.849453  21554.973577    712.369287  5  7  2  91       
PG18  -9104.530922  13769.219348 -20773.613626   -241.187949  6  6  4 106       
PG19  -2083.381476 -15190.327867  21492.536549    308.921179  2  8  5  97       
PG20  -5668.535303 -18842.792396 -17896.131331    436.845426  7  5  5  92       
PG21  19354.821126  12954.245315  14077.632962    154.081502  3  7  2  89       
PG22   5669.473875  15716.943552  21130.655308    471.097757 12  7  8  63       
PG23 -16636.836538  19917.563852  -5262.023650     19.625861  6  7  5  78       
PG24 -19217.580503  -8889.474046  15926.658703   -166.688694  7  7  4 118       
PG25 -18970.769297  13824.751998  11851.656718    438.522652  2  8  4  69       
PG26   -666.476397  22331.934020 -14218.045714    241.436259  7  9  6  81       
PG27  16208.583093  12813.386895 -17168.532801     50.271593  5  5  5  84       
PG28   2767.215599  23313.018534  12401.970734     70.832358  4  7  6  98       
PG29 -24135.822519   3826.045817 -10567.752356   -597.134058  3  7  2 102       
PG30   3451.264076 -20458.205022 -16322.711344   -520.399600  5  8  5  95       
PG31   8426.831371  24597.977278   3954.329762   -214.844284  3  8  5  71       
PG32  -4679.451574  14930.485486  21621.457168   -461.684833  1  1  2  98       
EOF
